GLOBALSTAR M094         
1 39074U 13005C   25061.51585917 -.00000074  00000+0  16358-3 0  9994
2 39074  51.9952 146.8997 0000758  92.1592 267.9362 12.62268613558907
GLOBALSTAR M096         
1 39075U 13005D   25061.52911435 -.00000094  00000+0  55339-4 0  9999
2 39075  52.0060 195.2904 0000877  85.2416 274.8551 12.62268734557827
GLOBALSTAR M078         
1 39076U 13005E   25061.58119099 -.00000082  00000+0  12078-3 0  9991
2 39076  51.9866 279.7853 0000617   1.6036 358.4832 12.62259805556451
GLOBALSTAR M095         
1 39077U 13005F   25061.52892058 -.00000077  00000+0  15052-3 0  9998
2 39077  51.9789 277.1977 0000913  43.7306 316.3632 12.62267369556300
GLOBALSTAR M087         
1 52888U 22064A   25061.24286974 -.00000102  00000+0  11047-4 0  9991
2 52888  51.9795  59.4697 0000307  69.8051 290.2848 12.62269075131860
